[{"OBJECT_NAME":"TEVEL2-2","OBJECT_ID":"2025-052K","EPOCH":"2026-03-09T15:33:48.895776","MEAN_MOTION":15.30343745,"ECCENTRICITY":0.0004693,"INCLINATION":97.3987,"RA_OF_ASC_NODE":324.77,"ARG_OF_PERICENTER":105.793,"MEAN_ANOMALY":254.3828,"EPHEMERIS_TYPE":0,"CLASSIFICATION_TYPE":"U","NORAD_CAT_ID":63219,"ELEMENT_SET_NO":999,"REV_AT_EPOCH":5485,"BSTAR":0.00069428,"MEAN_MOTION_DOT":0.00020339,"MEAN_MOTION_DDOT":0},{"OBJECT_NAME":"STARLINK-34082","OBJECT_ID":"2025-110E","EPOCH":"2026-03-09T06:19:27.860160","MEAN_MOTION":15.30228884,"ECCENTRICITY":0.00013305,"INCLINATION":53.1606,"RA_OF_ASC_NODE":29.0081,"ARG_OF_PERICENTER":118.3143,"MEAN_ANOMALY":241.7992,"EPHEMERIS_TYPE":0,"CLASSIFICATION_TYPE":"U","NORAD_CAT_ID":64100,"ELEMENT_SET_NO":999,"REV_AT_EPOCH":4581,"BSTAR":0.0024868859,"MEAN_MOTION_DOT":0.00074099,"MEAN_MOTION_DDOT":0}]
