TEVEL2-2                
1 63219U 25052K   26068.64848259  .00020339  00000+0  69428-3 0  9991
2 63219  97.3987 324.7700 0004693 105.7930 254.3828 15.30343745 54855
STARLINK-34082          
1 64100U 25110E   26068.26351690  .00074099  00000+0  24869-2 0  9993
2 64100  53.1606  29.0081 0001330 118.3143 241.7992 15.30228884 45815
